HST                     
1 20580U 90037B   26178.90014424  .00006671  00000+0  20967-3 0  9998
2 20580  28.4733   7.3521 0001392 273.3944  86.6493 15.30869751790219
POLAR                   
1 23802U 96013A   26178.05004534  .00000164  00000+0  00000+0 0  9998
2 23802  79.8666 226.9363 6480240 208.7405  90.4802  1.29846072144988
SWAS                    
1 25560U 98071A   26178.55094224  .00002379  00000+0  15383-3 0  9991
2 25560  69.8942 200.7915 0008737 249.5543 110.4684 15.09672536498839
CXO                     
1 25867U 99040B   26179.95532601  .00000592  00000+0  00000+0 0  9990
2 25867  56.3077 116.3625 7815439 310.1470   0.3486  0.37796038 17366
XMM-NEWTON              
1 25989U 99066A   26179.31942051  .00000041  00000+0  00000+0 0  9996
2 25989  64.4273 282.8431 4670867  64.6865   0.1170  0.50127671 23061
TERRA                   
1 25994U 99068A   26178.92748325  .00000369  00000+0  83994-4 0  9999
2 25994  97.9451 228.0477 0002419 159.1965  13.8393 14.61111043411171
CLUSTER II-FM7 (SAMBA)  
1 26410U 00041A   26181.52658742  .00015727  00000+0  00000+0 0  9995
2 26410 149.8900  53.0516 9069066 270.4353 359.5610  0.44859555 20361
CLUSTER II-FM8 (TANGO)  
1 26464U 00045B   26177.44442435  .00007600  00000+0  00000+0 0  9995
2 26464 150.1190  53.5568 9067323 270.7220   2.5445  0.44409415 20354
ODIN                    
1 26702U 01007A   26178.68721687  .00212185  00000+0  11313-2 0  9993
2 26702  97.3803 220.3302 0006344 135.8098 224.3677 15.79806552391059
TIMED                   
1 26998U 01055B   26178.84670742  .00000905  00000+0  85709-4 0  9993
2 26998  74.0664 213.5555 0001654 321.3619  38.7447 14.95312875332411
CORIOLIS                
1 27640U 03001A   26178.97832769  .00000100  00000+0  67523-4 0  9995
2 27640  98.7126 185.6983 0014010 177.0036 183.1227 14.19947593215750
SORCE                   
1 27651U 03004A   26178.76559953  .00002293  00000+0  17461-3 0  9998
2 27651  39.9888 201.3214 0016414 130.8837 229.3381 15.03758942273494
MOST                    
1 27843U 03031D   26178.91158762  .00000065  00000+0  49726-4 0  9996
2 27843  98.7043 186.4878 0009116 216.0485 144.0078 14.21324548192237
SCISAT 1                
1 27858U 03036A   26178.35505237  .00000618  00000+0  83564-4 0  9990
2 27858  73.9290 151.1406 0008207 221.2650 138.7907 14.81458509232956
SWIFT                   
1 28485U 04047A   26178.93302935  .00053476  00000+0  42627-3 0  9998
2 28485  20.5523 101.9436 0001221  89.5919 270.4667 15.69348089188559
HINODE (SOLAR-B)        
1 29479U 06041A   26178.54137594  .00000679  00000+0  12500-3 0  9996
2 29479  98.0544 194.5413 0015993 253.9024 106.0421 14.68636112 56397
SHIJIAN-6 02A (SJ-6 02A)
1 29505U 06046A   26178.90927981  .00005665  00000+0  28959-3 0  9993
2 29505  97.6364 220.0557 0004791 101.5048 258.6723 15.17062456 73896
SHIJIAN-6 02B (SJ-6 02B)
1 29506U 06046B   26178.94312543  .00001221  00000+0  99165-4 0  9992
2 29506  97.7159 207.9354 0015216  30.2564 329.9536 15.01402075 72356
FGRST (GLAST)           
1 33053U 08029A   26178.96690354  .00002868  00000+0  10151-3 0  9993
2 33053  25.5812 129.6264 0008534  93.7935 266.3579 15.23990646997485
SDO                     
1 36395U 10005A   26178.28933591 -.00000095  00000+0  00000+0 0  9999
2 36395  34.6720  86.1888 0001538  47.5663 143.6115  1.00270710 60169
CRYOSAT 2               
1 36508U 10013A   26178.90196412  .00000104  00000+0  25143-4 0  9996
2 36508  92.0360 279.9061 0002137  95.0175 265.1276 14.51902419859634
X-SAT                   
1 37389U 11015C   26178.89672654  .00000259  00000+0  12772-3 0  9996
2 37389  98.3508 155.4098 0013225 316.1202  43.8927 14.25210014789204
GCOM-W1 (SHIZUKU)       
1 38337U 12025A   26178.80619065  .00000419  00000+0  10304-3 0  9997
2 38337  98.2022 119.2011 0001628  69.5559 311.8347 14.57133704750587
NUSTAR                  
1 38358U 12031A   26179.00002315  .00014640  00000+0  84577-3 0  9998
2 38358   6.0287 313.0406 0009263 268.7766  34.0638 15.08902465  1309
NEOSSAT                 
1 39089U 13009D   26178.94123015  .00000140  00000+0  63294-4 0  9993
2 39089  98.4180 358.7183 0010374 208.9221 151.1392 14.35830049698287
BRITE-AUSTRIA           
1 39091U 13009F   26178.93450595  .00000168  00000+0  71644-4 0  9999
2 39091  98.3998 358.1043 0009685 201.7104 158.3673 14.36546103698590
IRIS                    
1 39197U 13033A   26178.80470074  .00000996  00000+0  12022-3 0  9996
2 39197  97.9324  18.0484 0023007 285.3297  74.5375 14.85904790701958
HISAKI (SPRINT-A)       
1 39253U 13049A   26178.95539516  .00000101  00000+0  51158-4 0  9991
2 39253  29.7173 165.2626 0136853 104.1627 257.4191 13.55545594632880
CASSIOPE                
1 39265U 13055A   26178.91775439  .00045242 -39558-6  48972-3 0  9995
2 39265  80.9147  53.6825 0288577  26.3478 335.2103 15.26187049669306
STSAT-3                 
1 39422U 13066G   26178.89951856  .00002402  00000+0  18377-3 0  9997
2 39422  97.6212 148.6151 0010116  14.4190 345.7322 15.02813737685814
